[{"OBJECT_NAME":"QIANFAN-7","OBJECT_ID":"2024-140G","EPOCH":"2026-03-09T22:22:28.116768","MEAN_MOTION":14.27774901,"ECCENTRICITY":0.00169421,"INCLINATION":88.9727,"RA_OF_ASC_NODE":283.4803,"ARG_OF_PERICENTER":110.6267,"MEAN_ANOMALY":249.6747,"EPHEMERIS_TYPE":0,"CLASSIFICATION_TYPE":"U","NORAD_CAT_ID":60385,"ELEMENT_SET_NO":999,"REV_AT_EPOCH":8283,"BSTAR":0.00011108135,"MEAN_MOTION_DOT":2.89e-6,"MEAN_MOTION_DDOT":0},{"OBJECT_NAME":"COSMOS 1048","OBJECT_ID":"1978-105A","EPOCH":"2026-03-09T15:50:11.230080","MEAN_MOTION":14.35224026,"ECCENTRICITY":0.00174853,"INCLINATION":74.0278,"RA_OF_ASC_NODE":157.6322,"ARG_OF_PERICENTER":294.1478,"MEAN_ANOMALY":65.7845,"EPHEMERIS_TYPE":0,"CLASSIFICATION_TYPE":"U","NORAD_CAT_ID":11111,"ELEMENT_SET_NO":999,"REV_AT_EPOCH":47381,"BSTAR":7.6773562e-5,"MEAN_MOTION_DOT":1.94e-6,"MEAN_MOTION_DDOT":0}]
